ONEWEB-0371             
1 49297U 21090U   24333.67240319  .00000057  00000+0  10893-3 0  9995
2 49297  87.9191  57.4133 0001620 101.0046 259.1269 13.19723540151862
ONEWEB-0372             
1 49298U 21090V   24333.40963666  .00000150  00000+0  33641-3 0  9994
2 49298  87.9276  27.0089 0001843  95.0381 265.0963 13.20771924155155
ONEWEB-0373             
1 49299U 21090W   24334.11840696  .00000078  00000+0  16005-3 0  9995
2 49299  87.9273  26.8819 0002138  99.3583 260.7793 13.20769982157730
ONEWEB-0374             
1 49300U 21090X   24333.63970317  .00000275  00000+0  70772-3 0  9998
2 49300  87.9022  42.1633 0001859 100.7256 259.4084 13.14504974153266
ONEWEB-0375             
1 49301U 21090Y   24334.40880942  .00000095  00000+0  20217-3 0  9998
2 49301  87.9274  26.8017 0002657 107.7659 252.3764 13.20769863157260
ONEWEB-0376             
1 49302U 21090Z   24333.67083385  .00000064  00000+0  12807-3 0  9995
2 49302  87.9183  57.4111 0001631  92.3348 267.7971 13.19724535151865
ONEWEB-0377             
1 49303U 21090AA  24334.39473276  .00000124  00000+0  27220-3 0  9990
2 49303  87.9278  26.7968 0001782 107.4725 252.6603 13.20772493157245
ONEWEB-0378             
1 49304U 21090AB  24334.11381431  .00000091  00000+0  19113-3 0  9997
2 49304  87.9273  26.8570 0002023  99.6666 260.4696 13.20770878156519
